start=new Date('2021-11-17T00:00:00.000Z').valueOf();
sats=[{"OBJECT_ID":"2021-009BA","LAUNCH_DATE":"2021-02-04","RCS_SIZE":"LARGE","ECCENTRICITY":"0.00016070","TLE_LINE1":"1 47596U 21009BA  21320.55499708 -.00000061  00000-0  14828-4 0  9993","EPHEMERIS_TYPE":"0","DECAY_DATE":null,"MEAN_MOTION":"15.06402180","SITE":"AFETR","RA_OF_ASC_NODE":"268.1892","GP_ID":"189881860","ELEMENT_SET_NO":"999","PERIAPSIS":"546.094","MEAN_MOTION_DDOT":"0.0000000000000","OBJECT_NAME":"STARLINK-2001","APOAPSIS":"548.320","INCLINATION":"53.0559","SEMIMAJOR_AXIS":"6925.342","CLASSIFICATION_TYPE":"U","FILE":"3216827","MEAN_ANOMALY":"285.2963","REF_FRAME":"TEME","BSTAR":"0.00001482800000","MEAN_MOTION_DOT":"-0.00000061","TLE_LINE2":"2 47596  53.0559 268.1892 0001607  74.8204 285.2963 15.06402180 43251","ARG_OF_PERICENTER":"74.8204","OBJECT_TYPE":"PAYLOAD","COUNTRY_CODE":"US","REV_AT_EPOCH":"4325","PERIOD":"95.592","NORAD_CAT_ID":"47596","MEAN_ELEMENT_THEORY":"SGP4","EPOCH":"2021-11-16T13:19:11.747712","TIME_SYSTEM":"UTC","CENTER_NAME":"EARTH"},{"RCS_SIZE":"LARGE","ECCENTRICITY":"0.00017400","LAUNCH_DATE":"2021-02-04","OBJECT_ID":"2021-009BB","MEAN_MOTION":"15.06396407","DECAY_DATE":null,"EPHEMERIS_TYPE":"0","TLE_LINE1":"1 47597U 21009BB  21320.54763547  .00000345  00000-0  42057-4 0  9997","MEAN_MOTION_DOT":"0.00000345","TLE_LINE2":"2 47597  53.0560 268.2248 0001740  68.9717 291.1458 15.06396407 43250","FILE":"3216827","MEAN_ANOMALY":"291.1458","BSTAR":"0.00004205700000","REF_FRAME":"TEME","CLASSIFICATION_TYPE":"U","APOAPSIS":"548.430","INCLINATION":"53.0560","SEMIMAJOR_AXIS":"6925.360","MEAN_MOTION_DDOT":"0.0000000000000","PERIAPSIS":"546.020","OBJECT_NAME":"STARLINK-2002","ELEMENT_SET_NO":"999","GP_ID":"189882611","SITE":"AFETR","RA_OF_ASC_NODE":"268.2248","CENTER_NAME":"EARTH","TIME_SYSTEM":"UTC","EPOCH":"2021-11-16T13:08:35.704608","MEAN_ELEMENT_THEORY":"SGP4","NORAD_CAT_ID":"47597","PERIOD":"95.592","OBJECT_TYPE":"PAYLOAD","COUNTRY_CODE":"US","REV_AT_EPOCH":"4325","ARG_OF_PERICENTER":"68.9717"},{"LAUNCH_DATE":"2021-02-04","OBJECT_ID":"2021-009BC","RCS_SIZE":"LARGE","ECCENTRICITY":"0.00016770","DECAY_DATE":null,"MEAN_MOTION":"15.06395269","TLE_LINE1":"1 47598U 21009BC  21320.49142409  .00000171  00000-0  30393-4 0  9997","EPHEMERIS_TYPE":"0","CLASSIFICATION_TYPE":"U","APOAPSIS":"548.389","INCLINATION":"53.0598","SEMIMAJOR_AXIS":"6925.363","MEAN_MOTION_DOT":"0.00000171","TLE_LINE2":"2 47598  53.0598 238.4547 0001677  63.9716 296.1445 15.06395269 43678","MEAN_ANOMALY":"296.1445","FILE":"3216827","REF_FRAME":"TEME","BSTAR":"0.00003039300000","GP_ID":"189881359","ELEMENT_SET_NO":"999","SITE":"AFETR","RA_OF_ASC_NODE":"238.4547","PERIAPSIS":"546.067","MEAN_MOTION_DDOT":"0.0000000000000","OBJECT_NAME":"STARLINK-2003","MEAN_ELEMENT_THEORY":"SGP4","CENTER_NAME":"EARTH","TIME_SYSTEM":"UTC","EPOCH":"2021-11-16T11:47:39.041376","COUNTRY_CODE":"US","OBJECT_TYPE":"PAYLOAD","REV_AT_EPOCH":"4367","ARG_OF_PERICENTER":"63.9716","NORAD_CAT_ID":"47598","PERIOD":"95.592"},{"APOAPSIS":"548.360","INCLINATION":"53.0563","SEMIMAJOR_AXIS":"6925.345","CLASSIFICATION_TYPE":"U","FILE":"3216827","MEAN_ANOMALY":"292.6673","REF_FRAME":"TEME","BSTAR":"0.00013586000000","MEAN_MOTION_DOT":"0.00001743","TLE_LINE2":"2 47599  53.0563 228.5123 0001660  67.4492 292.6673 15.06401185 43807","SITE":"AFETR","RA_OF_ASC_NODE":"228.5123","GP_ID":"189881603","ELEMENT_SET_NO":"999","PERIAPSIS":"546.060","MEAN_MOTION_DDOT":"0.0000000000000","OBJECT_NAME":"STARLINK-2004","MEAN_ELEMENT_THEORY":"SGP4","EPOCH":"2021-11-16T11:33:02.004480","TIME_SYSTEM":"UTC","CENTER_NAME":"EARTH","ARG_OF_PERICENTER":"67.4492","OBJECT_TYPE":"PAYLOAD","COUNTRY_CODE":"US","REV_AT_EPOCH":"4380","PERIOD":"95.592","NORAD_CAT_ID":"47599","OBJECT_ID":"2021-009BD","LAUNCH_DATE":"2021-02-04","RCS_SIZE":"LARGE","ECCENTRICITY":"0.00016600","DECAY_DATE":null,"MEAN_MOTION":"15.06401185","TLE_LINE1":"1 47599U 21009BD  21320.48127320  .00001743  00000-0  13586-3 0  9992","EPHEMERIS_TYPE":"0"},{"DECAY_DATE":null,"MEAN_MOTION":"15.06402102","TLE_LINE1":"1 47600U 21009BE  21320.44346698 -.00000491  00000-0 -13953-4 0  9992","EPHEMERIS_TYPE":"0","LAUNCH_DATE":"2021-02-04","OBJECT_ID":"2021-009BE","RCS_SIZE":"LARGE","ECCENTRICITY":"0.00057330","MEAN_ELEMENT_THEORY":"SGP4","TIME_SYSTEM":"UTC","CENTER_NAME":"EARTH","EPOCH":"2021-11-16T10:38:35.547072","COUNTRY_CODE":"US","OBJECT_TYPE":"PAYLOAD","REV_AT_EPOCH":"4380","ARG_OF_PERICENTER":"290.7996","NORAD_CAT_ID":"47600","PERIOD":"95.592","CLASSIFICATION_TYPE":"U","INCLINATION":"53.0583","APOAPSIS":"551.177","SEMIMAJOR_AXIS":"6925.342","MEAN_MOTION_DOT":"-0.00000491","TLE_LINE2":"2 47600  53.0583 228.6813 0005733 290.7996  69.2379 15.06402102 43805","MEAN_ANOMALY":"69.2379","FILE":"3216827","REF_FRAME":"TEME","BSTAR":"-0.00001395300000","ELEMENT_SET_NO":"999","GP_ID":"189882361","SITE":"AFETR","RA_OF_ASC_NODE":"228.6813","MEAN_MOTION_DDOT":"0.0000000000000","PERIAPSIS":"543.237","OBJECT_NAME":"STARLINK-2005"},{"RA_OF_ASC_NODE":"228.4931","SITE":"AFETR","GP_ID":"189882111","ELEMENT_SET_NO":"999","OBJECT_NAME":"STARLINK-2006","PERIAPSIS":"546.003","MEAN_MOTION_DDOT":"0.0000000000000","SEMIMAJOR_AXIS":"6925.347","INCLINATION":"53.0560","APOAPSIS":"548.421","CLASSIFICATION_TYPE":"U","BSTAR":"0.00007503000000","REF_FRAME":"TEME","FILE":"3216827","MEAN_ANOMALY":"292.3008","TLE_LINE2":"2 47601  53.0560 228.4931 0001746  67.8166 292.3008 15.06400608 43809","MEAN_MOTION_DOT":"0.00000836","ARG_OF_PERICENTER":"67.8166","REV_AT_EPOCH":"4380","OBJECT_TYPE":"PAYLOAD","COUNTRY_CODE":"US","PERIOD":"95.592","NORAD_CAT_ID":"47601","MEAN_ELEMENT_THEORY":"SGP4","EPOCH":"2021-11-16T11:38:21.324192","CENTER_NAME":"EARTH","TIME_SYSTEM":"UTC","OBJECT_ID":"2021-009BF","LAUNCH_DATE":"2021-02-04","ECCENTRICITY":"0.00017460","RCS_SIZE":"LARGE","TLE_LINE1":"1 47601U 21009BF  21320.48496903  .00000836  00000-0  75030-4 0  9997","EPHEMERIS_TYPE":"0","DECAY_DATE":null,"MEAN_MOTION":"15.06400608"},{"RCS_SIZE":"LARGE","ECCENTRICITY":"0.00018110","OBJECT_ID":"2021-009BG","LAUNCH_DATE":"2021-02-04","MEAN_MOTION":"15.06399776","DECAY_DATE":null,"EPHEMERIS_TYPE":"0","TLE_LINE1":"1 47602U 21009BG  21320.50616141  .00000514  00000-0  53407-4 0  9996","FILE":"3217126","MEAN_ANOMALY":"297.6140","REF_FRAME":"TEME","BSTAR":"0.00005340700000","MEAN_MOTION_DOT":"0.00000514","TLE_LINE2":"2 47602  53.0544 238.3922 0001811  62.5033 297.6140 15.06399776 44269","INCLINATION":"53.0544","APOAPSIS":"548.468","SEMIMAJOR_AXIS":"6925.349","CLASSIFICATION_TYPE":"U","PERIAPSIS":"545.960","MEAN_MOTION_DDOT":"0.0000000000000","OBJECT_NAME":"STARLINK-2007","SITE":"AFETR","RA_OF_ASC_NODE":"238.3922","ELEMENT_SET_NO":"999","GP_ID":"189890216","EPOCH":"2021-11-16T12:08:52.345824","CENTER_NAME":"EARTH","TIME_SYSTEM":"UTC","MEAN_ELEMENT_THEORY":"SGP4","PERIOD":"95.592","NORAD_CAT_ID":"47602","ARG_OF_PERICENTER":"62.5033","OBJECT_TYPE":"PAYLOAD","COUNTRY_CODE":"US","REV_AT_EPOCH":"4426"},{"MEAN_ELEMENT_THEORY":"SGP4","CENTER_NAME":"EARTH","TIME_SYSTEM":"UTC","EPOCH":"2021-11-16T09:15:03.157344","REV_AT_EPOCH":"4322","OBJECT_TYPE":"PAYLOAD","COUNTRY_CODE":"US","ARG_OF_PERICENTER":"68.7575","NORAD_CAT_ID":"47603","PERIOD":"95.593","CLASSIFICATION_TYPE":"U","SEMIMAJOR_AXIS":"6925.370","INCLINATION":"53.0554","APOAPSIS":"548.469","TLE_LINE2":"2 47603  53.0554 268.9338 0001781  68.7575 291.3605 15.06392914 43225","MEAN_MOTION_DOT":"-0.00000274","BSTAR":"0.00000053793000","REF_FRAME":"TEME","MEAN_ANOMALY":"291.3605","FILE":"3216827","GP_ID":"189881103","ELEMENT_SET_NO":"999","RA_OF_ASC_NODE":"268.9338","SITE":"AFETR","OBJECT_NAME":"STARLINK-2008","MEAN_MOTION_DDOT":"0.0000000000000","PERIAPSIS":"546.002","DECAY_DATE":null,"MEAN_MOTION":"15.06392914","TLE_LINE1":"1 47603U 21009BH  21320.38545321 -.00000274  00000-0  53793-6 0  9998","EPHEMERIS_TYPE":"0","LAUNCH_DATE":"2021-02-04","OBJECT_ID":"2021-009BH","ECCENTRICITY":"0.00017810","RCS_SIZE":"LARGE"},{"EPHEMERIS_TYPE":"0","TLE_LINE1":"1 47604U 21009BJ  21320.51352782  .00001950  00000-0  14974-3 0  9997","MEAN_MOTION":"15.06403108","DECAY_DATE":null,"RCS_SIZE":"LARGE","ECCENTRICITY":"0.00018770","OBJECT_ID":"2021-009BJ","LAUNCH_DATE":"2021-02-04","PERIOD":"95.592","NORAD_CAT_ID":"47604","ARG_OF_PERICENTER":"64.2477","COUNTRY_CODE":"US","OBJECT_TYPE":"PAYLOAD","REV_AT_EPOCH":"4427","EPOCH":"2021-11-16T12:19:28.803648","CENTER_NAME":"EARTH","TIME_SYSTEM":"UTC","MEAN_ELEMENT_THEORY":"SGP4","MEAN_MOTION_DDOT":"0.0000000000000","PERIAPSIS":"545.904","OBJECT_NAME":"STARLINK-2021","SITE":"AFETR","RA_OF_ASC_NODE":"238.3726","ELEMENT_SET_NO":"999","GP_ID":"189889967","MEAN_ANOMALY":"295.8706","FILE":"3217126","BSTAR":"0.00014974000000","REF_FRAME":"TEME","MEAN_MOTION_DOT":"0.00001950","TLE_LINE2":"2 47604  53.0542 238.3726 0001877  64.2477 295.8706 15.06403108 44278","APOAPSIS":"548.504","INCLINATION":"53.0542","SEMIMAJOR_AXIS":"6925.339","CLASSIFICATION_TYPE":"U"},{"OBJECT_ID":"2021-009BK","LAUNCH_DATE":"2021-02-04","ECCENTRICITY":"0.00017040","RCS_SIZE":"LARGE","TLE_LINE1":"1 47605U 21009BK  21320.50984962  .00000621  00000-0  60588-4 0  9995","EPHEMERIS_TYPE":"0","DECAY_DATE":null,"MEAN_MOTION":"15.06399059","RA_OF_ASC_NODE":"238.3793","SITE":"AFETR","ELEMENT_SET_NO":"999","GP_ID":"189886292","OBJECT_NAME":"STARLINK-2023","MEAN_MOTION_DDOT":"0.0000000000000","PERIAPSIS":"546.036","SEMIMAJOR_AXIS":"6925.351","APOAPSIS":"548.397","INCLINATION":"53.0529","CLASSIFICATION_TYPE":"U","REF_FRAME":"TEME","BSTAR":"0.00006058800000","FILE":"3216968","MEAN_ANOMALY":"295.7163","TLE_LINE2":"2 47605  53.0529 238.3793 0001704  64.4002 295.7163 15.06399059 44267","MEAN_MOTION_DOT":"0.00000621","ARG_OF_PERICENTER":"64.4002","REV_AT_EPOCH":"4426","COUNTRY_CODE":"US","OBJECT_TYPE":"PAYLOAD","PERIOD":"95.592","NORAD_CAT_ID":"47605","MEAN_ELEMENT_THEORY":"SGP4","EPOCH":"2021-11-16T12:14:11.007168","CENTER_NAME":"EARTH","TIME_SYSTEM":"UTC"}];
